[{"OBJECT_NAME":"STARLINK-1585","OBJECT_ID":"2020-057A","EPOCH":"2026-03-10T00:00:02.999808","MEAN_MOTION":15.83808209,"ECCENTRICITY":9.633e-5,"INCLINATION":53.0404,"RA_OF_ASC_NODE":245.461,"ARG_OF_PERICENTER":185.9562,"MEAN_ANOMALY":86.7095,"EPHEMERIS_TYPE":0,"CLASSIFICATION_TYPE":"U","NORAD_CAT_ID":46117,"ELEMENT_SET_NO":999,"REV_AT_EPOCH":598,"BSTAR":0.0013789773,"MEAN_MOTION_DOT":0.00323412,"MEAN_MOTION_DDOT":0},{"OBJECT_NAME":"STARLINK-36383","OBJECT_ID":"2026-036U","EPOCH":"2026-03-09T21:18:23.646816","MEAN_MOTION":15.82126529,"ECCENTRICITY":0.00017772,"INCLINATION":42.999,"RA_OF_ASC_NODE":248.4021,"ARG_OF_PERICENTER":287.492,"MEAN_ANOMALY":72.5758,"EPHEMERIS_TYPE":0,"CLASSIFICATION_TYPE":"U","NORAD_CAT_ID":67922,"ELEMENT_SET_NO":999,"REV_AT_EPOCH":370,"BSTAR":0.0016902307,"MEAN_MOTION_DOT":0.00373062,"MEAN_MOTION_DDOT":0}]
